#cP2022 12 26  0  0  0.00000000      96 ORBIT IGS20 HLM  IGS
## 2242  86400.00000000   900.00000000 59939 0.0000000000000
+   31   G01G02G03G04G05G06G07G08G09G10G11G12G13G14G15G16G17
+        G18G19G20G21G22G23G24G25G26G27G29G30G31G32  0  0  0
+          0  0  0  0  0  0  0  0  0  0  0  0  0  0  0  0  0
+          0  0  0  0  0  0  0  0  0  0  0  0  0  0  0  0  0
+          0  0  0  0  0  0  0  0  0  0  0  0  0  0  0  0  0
++         2  2  3  2  2  2  2  2  2  3  2  2  2  2  2  2  2
++         2  2  2  2  2  3  2  2  2  2  2  2  1  2  0  0  0
++         0  0  0  0  0  0  0  0  0  0  0  0  0  0  0  0  0
++         0  0  0  0  0  0  0  0  0  0  0  0  0  0  0  0  0
++         0  0  0  0  0  0  0  0  0  0  0  0  0  0  0  0  0
%c G  cc GPS ccc cccc cccc cccc cccc ccccc ccccc ccccc ccccc
%c cc cc ccc ccc cccc cccc cccc cccc ccccc ccccc ccccc ccccc
%f  1.2500000  1.025000000  0.00000000000  0.000000000000000
%f  0.0000000  0.000000000  0.00000000000  0.000000000000000
%i    0    0    0    0      0      0      0      0         0
%i    0    0    0    0      0      0      0      0         0
/* FINAL ORBIT COMBINATION FROM WEIGHTED AVERAGE OF:        
/* cod esa gfz grg jpl mit ngs sio                          
/* REFERENCED TO IGS TIME (IGST) AND TO WEIGHTED MEAN POLE: 
/* PCV:IGS20_2233 OL/AL:FES2014b NONE     Y  ORB:CMB CLK:CMB
*  2022 12 26 14 15  0.00000000
PG01 -15077.319231   -597.795860  21588.571341    232.541412  4  6  6  85       
PG02  14249.262762  -4191.230816 -21379.714173   -630.941982  6  2  2  80       
PG03 -20549.883359   8686.561968  14208.016768   -374.764111  8  9  9  91       
PG04 -25030.688888    438.536786  -9033.011390    -61.174969  6  3  7  60       
PG05  15146.941908   4945.064591 -21436.860279   -109.564366  7  5  7  81       
PG06   5293.555422  25624.160132   4358.029490    547.577410  4  4  4  95       
PG07  -9369.692822  15191.697357 -19082.804786    268.710936  6  7  3  87       
PG08 -25888.886255  -6374.242288  -2437.332955   -100.542295  7  6  6   6       
PG09 -17748.665868   9339.387230 -17516.422291   -247.142067  3  5  5  80       
PG10   8478.059139 -21964.480067  12140.137242    -17.761324  7  8  7  86       
PG11  12101.943127  22141.875149  -8340.023080    -64.860194  4  5  2  84       
PG12  20957.574186  -6327.980240  14691.472943   -320.551710  6  6  6  78       
PG13  21549.886117  13522.572261  -8135.301102    448.621618  4  3  3  92       
PG14 -11140.729999  21934.385565   9860.665201    -61.399242  7  5  7  84       
PG15  26349.833748   3763.919560  -2684.223521     -0.797665  5  4  2  77       
PG16 -11910.461246  -9635.196752 -22009.711077   -525.433907     4  4  69       
PG17  -4621.261953  14366.231627  22299.349486    688.808462  5  3  2 104       
PG18   7472.353814 -17747.054666 -18227.549583    -74.100352  7  6  6 108       
PG19   8416.754880  16268.510964  19099.065926    255.680750  4  5  4  95       
PG20   6838.018972  16147.944694 -19984.108823    461.075344  7  5  3  49       
PG21 -17873.295505  -9064.654171  18406.859285    152.919665  6  6  8  59       
PG22 -11338.603220 -16426.468160  18037.500629    392.725259  2  5  4  47       
PG23  16302.341910 -20828.928866   1296.072487      0.849975 11 11  5 103       
PG24  17440.275676   4330.082477  19338.423647     -1.842545  4  5  6  63       
PG25  20078.826051 -15530.117651   6995.877346    405.608153  6  6  6  82       
PG26  -2554.120860 -18866.358041 -18486.039113    239.189935  2  7     95       
PG27 -19879.514583 -12872.081484 -12653.893900    143.104774  6  5  3  66       
PG29  20170.026698  -5717.763023 -16395.874792   -576.558612  6  5  4  77       
PG30   -947.728754  23937.571109 -11096.927875   -534.683468  6  5  3  76       
PG31  -6140.948775 -25465.097717   2276.107903   -204.443180  6  5  4  82       
PG32    351.183838 -15480.057112  21749.245156   -342.966461  4  2  3  39       
*  2022 12 26 14 30  0.00000000
PG01 -15867.911506  -2950.745013  20856.453054    232.536886  4  6  6  75       
PG02  15284.714519  -1848.954708 -20984.219211   -630.940106  6  3  2  87       
PG03 -19543.498041   7227.658995  16285.371865   -374.763020  8  8  9  91       
PG04 -25845.075452     37.605898  -6365.402584    -61.168392  6  4  7  69       
PG05  13696.833534   6906.121449 -21859.253903   -109.565151  6  6  6  64       
PG06   4907.106430  25071.224439   7171.987133    547.583720  4  4  5  94       
PG07 -10306.775934  13034.702261 -20184.475951    268.706176  6  8  1  78       
PG08 -25432.753344  -6531.872407  -5226.999312   -100.544009  7  6  6  40       
PG09 -19588.846928   8892.660315 -15687.958683   -247.136342  3  5  5  86       
PG10   9415.736722 -22785.213026   9615.067160    -17.762922  6  8  7 102       
PG11  12119.814621  22973.571555  -5630.396415    -64.867385  4  5  2  79       
PG12  19811.183278  -4874.735890  16675.320445   -320.555366  6  6  6  69       
PG13  20490.818037  13389.395553 -10718.987571    448.628475  4  3  2  78       
PG14 -11995.955758  22489.029112   7252.212450    -61.393128  8  5  7  92       
PG15  25926.733183   4056.307903  -5414.566011     -0.794556  5  4  2  18       
PG16 -10168.854110 -11364.888093 -22017.393987   -525.433024     3  4  81       
PG17  -6990.311195  13794.473864  22044.537236    688.811062  5  3  2 102       
PG18   8296.846574 -15735.746064 -19673.529153    -74.113682  7  6  6 104       
PG19   6189.841618  15725.807160  20326.911861    255.685429  5  5  3  95       
PG20   5614.068414  18003.761178 -18763.222924    461.073360  7  5  3  70       
PG21 -18579.855251 -10806.130175  16695.246550    152.920112  6  6  8  58       
PG22  -9312.047315 -16020.216221  19521.495466    392.732591  1  4  4  83       
PG23  16476.529236 -20671.079615  -1590.439569      0.850698 11 11  5 100       
PG24  18245.253323   6383.026592  18043.869511     -1.857962  4  5  5  40       
PG25  19664.832203 -14581.137306   9633.679694    405.611356  6  6  6 101       
PG26  -1199.995036 -20385.844293 -16904.881700    239.190646     6     72       
PG27 -18350.476808 -12764.970912 -14877.673264    143.095873  6  4  4  65       
PG29  21828.507623  -5157.559056 -14328.177435   -576.561266  6  5  5  76       
PG30  -1697.518407  22688.145785 -13400.253979   -534.682776  6  5  3  94       
PG31  -5705.098932 -25142.852021   5103.291570   -204.443900  6  5  4  93       
PG32   2779.693915 -15085.989287  21834.004740   -342.978046  4  3  4  66       
*  2022 12 26 14 45  0.00000000
PG01 -16747.032553  -5154.758866  19757.741099    232.532293  4  7  6  87       
PG02  16406.382808    377.440314 -20205.056653   -630.938254  7  3  2  84       
PG03 -18487.025393   5538.129071  18078.844701   -374.762011  8  8  9  84       
PG04 -26375.065798   -275.451294  -3588.934495    -61.161784  6  4  7  42       
PG05  12337.657797   8964.455010 -21911.569087   -109.566465  6  6  5  61       
PG06   4366.889209  24253.762931   9862.156963    547.590182  4  4  5  98       
PG07 -11388.662961  10831.042304 -20922.063029    268.701064  6  8  1  67       
PG08 -24678.700680  -6687.239757  -7928.822960   -100.545317  7  6  6  50       
PG09 -21229.418856   8560.858436 -13591.493468   -247.130630  2  6  5  96       
PG10  10134.464499 -23415.851358   6922.703384    -17.764743  6  9  7  98       
PG11  12071.369834  23510.999614  -2824.053173    -64.874572  3  5  1  78       
PG12  18605.919427  -3201.902196  18365.288529   -320.559468  6  6  5  68       
PG13  19154.893882  13244.657983 -13121.518685    448.633381  4  3  2  82       
PG14 -12634.590877  22848.426967   4518.095542    -61.386984  8  6  7  92       
PG15  25219.982475   4372.345971  -8054.173492     -0.791614  6  4  3  61       
PG16  -8532.778195 -13174.484782 -21655.587540   -525.432261  1  3  5  68       
PG17  -9339.729148  13364.113184  21425.703228    688.812785  5  4  4  96       
PG18   9283.507960 -13638.934564 -20779.580899    -74.127044  8  6  6  97       
PG19   3816.345978  15278.319518  21199.993209    255.689725  6  5  2  94       
PG20   4556.599494  19778.284173 -17221.001033    461.070789  6  4  3  82       
PG21 -19283.271601 -12328.350278  14716.552474    152.920316  6  7  8  73       
PG22  -7123.275488 -15694.690293  20682.672655    392.739646     4  3  71       
PG23  16472.935945 -20253.990735  -4449.337651      0.851439 12 12  7 105       
PG24  19067.484281   8245.086935  16434.641134     -1.873391  3  5  5  66       
PG25  19128.481097 -13373.907842  12100.862974    405.614479  6  6  6  79       
PG26    -23.471407 -21806.117860 -15031.189078    239.191366     6  2  79       
PG27 -16584.150073 -12716.489857 -16853.648266    143.087018  6  4  4  59       
PG29  23271.701004  -4735.078612 -12015.428482   -576.563267  6  5  5  91       
PG30  -2601.668720  21247.150835 -15468.876157   -534.682097  5  5  3  73       
PG31  -5132.062412 -24547.938805   7839.822610   -204.444989  6  6  4  88       
PG32   5216.282068 -14820.273841  21548.268214   -342.989636  4  3  6  49       
EOF
